STARLINK-33865          
1 64247U 25119Q   25222.58334491  .00020945  00000+0  76902-3 0  9997
2 64247  43.0003  58.9708 0001802 276.5979 196.5297 15.27556775  5899
STARLINK-34234          
1 64248U 25119R   25221.86925017  .00037877  00000+0  13777-2 0  9990
2 64248  42.9991  63.3374 0000700 273.8648  86.2124 15.27608845 11776
STARLINK-34256          
1 64249U 25119S   25222.24639517  .00038839  00000+0  13785-2 0  9999
2 64249  42.9981  61.0054 0001169 296.9993  63.0739 15.28401613 11832
STARLINK-34229          
1 64250U 25119T   25222.27954820  .00030278  00000+0  11050-2 0  9993
2 64250  42.9992  61.2659 0001795 270.2998  89.7648 15.27588125 11831
STARLINK-34224          
1 64251U 25119U   25222.58334491  .00029795  00000+0  10872-2 0  9997
2 64251  42.9994  59.0237 0001074 276.0320 175.8325 15.27601136 11842
STARLINK-34215          
1 64252U 25119V   25222.59073918  .00022353  00000+0  79893-3 0  9995
2 64252  43.0037  59.2990 0000245  58.6087 301.4789 15.28409012 11889
STARLINK-33893          
1 64253U 25119W   25222.60007991  .00020675  00000+0  75943-3 0  9993
2 64253  43.0008  59.3664 0001132 281.8483  78.2241 15.27549512 11884
STARLINK-34183          
1 64254U 25119X   25222.61034735  .00032907  00000+0  12005-2 0  9991
2 64254  43.0026  59.4457 0001374 265.4663  94.6031 15.27566644 11886
STARLINK-34211          
1 64255U 25119Y   25221.96033086  .00033675  00000+0  12261-2 0  9994
2 64255  43.0015  63.1642 0002131 263.5409  96.5200 15.27621576 11786
STARLINK-34329          
1 64256U 25120A   25221.73185914  .00033038  00000+0  83216-3 0  9992
2 64256  53.1592  23.4101 0001324  75.6767 284.4385 15.39626590 11449
STARLINK-34352          
1 64257U 25120B   25222.60816667  .00035487  00000+0  89236-3 0  9994
2 64257  53.1600  18.9239 0001076 128.5882 231.5219 15.39642621 11522
STARLINK-34308          
1 64258U 25120C   25222.62210444  .00050319  00000+0  12598-2 0  9995
2 64258  53.1615  19.0119 0001589  94.7236 265.3950 15.39616305 11521
STARLINK-34306          
1 64259U 25120D   25222.58960105  .00009005  00000+0  23496-3 0  9993
2 64259  53.1602  18.8047 0002007  21.4257 338.6831 15.39605671 11527
STARLINK-34281          
1 64260U 25120E   25222.59888225  .00031868  00000+0  80304-3 0  9991
2 64260  53.1601  18.8629 0000701   9.6467 350.4551 15.39632020 11523
STARLINK-34297          
1 64261U 25120F   25222.43664217  .00049340  00000+0  12351-2 0  9998
2 64261  53.1611  19.9884 0001337  73.2867 286.8284 15.39630209 11440
STARLINK-34325          
1 64262U 25120G   25222.58494939  .00052385  00000+0  13113-2 0  9997
2 64262  53.1601  18.7756 0001120  76.3901 283.7228 15.39604344 11577
STARLINK-34276          
1 64263U 25120H   25222.61745929  .00044303  00000+0  11107-2 0  9992
2 64263  53.1607  18.9818 0001206  98.0924 262.0217 15.39631766 11572
