[{"OBJECT_NAME":"STARLINK-33865","OBJECT_ID":"2025-119Q","EPOCH":"2025-08-10T14:00:01.000224","MEAN_MOTION":15.27556775,"ECCENTRICITY":0.0001802,"INCLINATION":43.0003,"RA_OF_ASC_NODE":58.9708,"ARG_OF_PERICENTER":276.5979,"MEAN_ANOMALY":196.5297,"EPHEMERIS_TYPE":0,"CLASSIFICATION_TYPE":"U","NORAD_CAT_ID":64247,"ELEMENT_SET_NO":999,"REV_AT_EPOCH":589,"BSTAR":0.00076902,"MEAN_MOTION_DOT":0.00020945,"MEAN_MOTION_DDOT":0},{"OBJECT_NAME":"STARLINK-34234","OBJECT_ID":"2025-119R","EPOCH":"2025-08-09T20:51:43.214688","MEAN_MOTION":15.27608845,"ECCENTRICITY":7.0e-5,"INCLINATION":42.9991,"RA_OF_ASC_NODE":63.3374,"ARG_OF_PERICENTER":273.8648,"MEAN_ANOMALY":86.2124,"EPHEMERIS_TYPE":0,"CLASSIFICATION_TYPE":"U","NORAD_CAT_ID":64248,"ELEMENT_SET_NO":999,"REV_AT_EPOCH":1177,"BSTAR":0.0013777,"MEAN_MOTION_DOT":0.00037877,"MEAN_MOTION_DDOT":0},{"OBJECT_NAME":"STARLINK-34256","OBJECT_ID":"2025-119S","EPOCH":"2025-08-10T05:54:48.542688","MEAN_MOTION":15.28401613,"ECCENTRICITY":0.0001169,"INCLINATION":42.9981,"RA_OF_ASC_NODE":61.0054,"ARG_OF_PERICENTER":296.9993,"MEAN_ANOMALY":63.0739,"EPHEMERIS_TYPE":0,"CLASSIFICATION_TYPE":"U","NORAD_CAT_ID":64249,"ELEMENT_SET_NO":999,"REV_AT_EPOCH":1183,"BSTAR":0.0013785,"MEAN_MOTION_DOT":0.00038839,"MEAN_MOTION_DDOT":0},{"OBJECT_NAME":"STARLINK-34229","OBJECT_ID":"2025-119T","EPOCH":"2025-08-10T06:42:32.964480","MEAN_MOTION":15.27588125,"ECCENTRICITY":0.0001795,"INCLINATION":42.9992,"RA_OF_ASC_NODE":61.2659,"ARG_OF_PERICENTER":270.2998,"MEAN_ANOMALY":89.7648,"EPHEMERIS_TYPE":0,"CLASSIFICATION_TYPE":"U","NORAD_CAT_ID":64250,"ELEMENT_SET_NO":999,"REV_AT_EPOCH":1183,"BSTAR":0.001105,"MEAN_MOTION_DOT":0.00030278,"MEAN_MOTION_DDOT":0},{"OBJECT_NAME":"STARLINK-34224","OBJECT_ID":"2025-119U","EPOCH":"2025-08-10T14:00:01.000224","MEAN_MOTION":15.27601136,"ECCENTRICITY":0.0001074,"INCLINATION":42.9994,"RA_OF_ASC_NODE":59.0237,"ARG_OF_PERICENTER":276.032,"MEAN_ANOMALY":175.8325,"EPHEMERIS_TYPE":0,"CLASSIFICATION_TYPE":"U","NORAD_CAT_ID":64251,"ELEMENT_SET_NO":999,"REV_AT_EPOCH":1184,"BSTAR":0.0010872,"MEAN_MOTION_DOT":0.00029795,"MEAN_MOTION_DDOT":0},{"OBJECT_NAME":"STARLINK-34215","OBJECT_ID":"2025-119V","EPOCH":"2025-08-10T14:10:39.865152","MEAN_MOTION":15.28409012,"ECCENTRICITY":2.45e-5,"INCLINATION":43.0037,"RA_OF_ASC_NODE":59.299,"ARG_OF_PERICENTER":58.6087,"MEAN_ANOMALY":301.4789,"EPHEMERIS_TYPE":0,"CLASSIFICATION_TYPE":"U","NORAD_CAT_ID":64252,"ELEMENT_SET_NO":999,"REV_AT_EPOCH":1188,"BSTAR":0.00079893,"MEAN_MOTION_DOT":0.00022353,"MEAN_MOTION_DDOT":0},{"OBJECT_NAME":"STARLINK-33893","OBJECT_ID":"2025-119W","EPOCH":"2025-08-10T14:24:06.904224","MEAN_MOTION":15.27549512,"ECCENTRICITY":0.0001132,"INCLINATION":43.0008,"RA_OF_ASC_NODE":59.3664,"ARG_OF_PERICENTER":281.8483,"MEAN_ANOMALY":78.2241,"EPHEMERIS_TYPE":0,"CLASSIFICATION_TYPE":"U","NORAD_CAT_ID":64253,"ELEMENT_SET_NO":999,"REV_AT_EPOCH":1188,"BSTAR":0.00075943,"MEAN_MOTION_DOT":0.00020675,"MEAN_MOTION_DDOT":0},{"OBJECT_NAME":"STARLINK-34183","OBJECT_ID":"2025-119X","EPOCH":"2025-08-10T14:38:54.011040","MEAN_MOTION":15.27566644,"ECCENTRICITY":0.0001374,"INCLINATION":43.0026,"RA_OF_ASC_NODE":59.4457,"ARG_OF_PERICENTER":265.4663,"MEAN_ANOMALY":94.6031,"EPHEMERIS_TYPE":0,"CLASSIFICATION_TYPE":"U","NORAD_CAT_ID":64254,"ELEMENT_SET_NO":999,"REV_AT_EPOCH":1188,"BSTAR":0.0012005,"MEAN_MOTION_DOT":0.00032907,"MEAN_MOTION_DDOT":0},{"OBJECT_NAME":"STARLINK-34211","OBJECT_ID":"2025-119Y","EPOCH":"2025-08-09T23:02:52.586304","MEAN_MOTION":15.27621576,"ECCENTRICITY":0.0002131,"INCLINATION":43.0015,"RA_OF_ASC_NODE":63.1642,"ARG_OF_PERICENTER":263.5409,"MEAN_ANOMALY":96.52,"EPHEMERIS_TYPE":0,"CLASSIFICATION_TYPE":"U","NORAD_CAT_ID":64255,"ELEMENT_SET_NO":999,"REV_AT_EPOCH":1178,"BSTAR":0.0012261,"MEAN_MOTION_DOT":0.00033675,"MEAN_MOTION_DDOT":0},{"OBJECT_NAME":"STARLINK-34329","OBJECT_ID":"2025-120A","EPOCH":"2025-08-09T17:33:52.629696","MEAN_MOTION":15.3962659,"ECCENTRICITY":0.0001324,"INCLINATION":53.1592,"RA_OF_ASC_NODE":23.4101,"ARG_OF_PERICENTER":75.6767,"MEAN_ANOMALY":284.4385,"EPHEMERIS_TYPE":0,"CLASSIFICATION_TYPE":"U","NORAD_CAT_ID":64256,"ELEMENT_SET_NO":999,"REV_AT_EPOCH":1144,"BSTAR":0.00083216,"MEAN_MOTION_DOT":0.00033038,"MEAN_MOTION_DDOT":0},{"OBJECT_NAME":"STARLINK-34352","OBJECT_ID":"2025-120B","EPOCH":"2025-08-10T14:35:45.600288","MEAN_MOTION":15.39642621,"ECCENTRICITY":0.0001076,"INCLINATION":53.16,"RA_OF_ASC_NODE":18.9239,"ARG_OF_PERICENTER":128.5882,"MEAN_ANOMALY":231.5219,"EPHEMERIS_TYPE":0,"CLASSIFICATION_TYPE":"U","NORAD_CAT_ID":64257,"ELEMENT_SET_NO":999,"REV_AT_EPOCH":1152,"BSTAR":0.00089236,"MEAN_MOTION_DOT":0.00035487,"MEAN_MOTION_DDOT":0},{"OBJECT_NAME":"STARLINK-34308","OBJECT_ID":"2025-120C","EPOCH":"2025-08-10T14:55:49.823616","MEAN_MOTION":15.39616305,"ECCENTRICITY":0.0001589,"INCLINATION":53.1615,"RA_OF_ASC_NODE":19.0119,"ARG_OF_PERICENTER":94.7236,"MEAN_ANOMALY":265.395,"EPHEMERIS_TYPE":0,"CLASSIFICATION_TYPE":"U","NORAD_CAT_ID":64258,"ELEMENT_SET_NO":999,"REV_AT_EPOCH":1152,"BSTAR":0.0012598,"MEAN_MOTION_DOT":0.00050319,"MEAN_MOTION_DDOT":0},{"OBJECT_NAME":"STARLINK-34306","OBJECT_ID":"2025-120D","EPOCH":"2025-08-10T14:09:01.530720","MEAN_MOTION":15.39605671,"ECCENTRICITY":0.0002007,"INCLINATION":53.1602,"RA_OF_ASC_NODE":18.8047,"ARG_OF_PERICENTER":21.4257,"MEAN_ANOMALY":338.6831,"EPHEMERIS_TYPE":0,"CLASSIFICATION_TYPE":"U","NORAD_CAT_ID":64259,"ELEMENT_SET_NO":999,"REV_AT_EPOCH":1152,"BSTAR":0.00023496,"MEAN_MOTION_DOT":9.005e-5,"MEAN_MOTION_DDOT":0},{"OBJECT_NAME":"STARLINK-34281","OBJECT_ID":"2025-120E","EPOCH":"2025-08-10T14:22:23.426400","MEAN_MOTION":15.3963202,"ECCENTRICITY":7.01e-5,"INCLINATION":53.1601,"RA_OF_ASC_NODE":18.8629,"ARG_OF_PERICENTER":9.6467,"MEAN_ANOMALY":350.4551,"EPHEMERIS_TYPE":0,"CLASSIFICATION_TYPE":"U","NORAD_CAT_ID":64260,"ELEMENT_SET_NO":999,"REV_AT_EPOCH":1152,"BSTAR":0.00080304,"MEAN_MOTION_DOT":0.00031868,"MEAN_MOTION_DDOT":0},{"OBJECT_NAME":"STARLINK-34297","OBJECT_ID":"2025-120F","EPOCH":"2025-08-10T10:28:45.883488","MEAN_MOTION":15.39630209,"ECCENTRICITY":0.0001337,"INCLINATION":53.1611,"RA_OF_ASC_NODE":19.9884,"ARG_OF_PERICENTER":73.2867,"MEAN_ANOMALY":286.8284,"EPHEMERIS_TYPE":0,"CLASSIFICATION_TYPE":"U","NORAD_CAT_ID":64261,"ELEMENT_SET_NO":999,"REV_AT_EPOCH":1144,"BSTAR":0.0012351,"MEAN_MOTION_DOT":0.0004934,"MEAN_MOTION_DDOT":0},{"OBJECT_NAME":"STARLINK-34325","OBJECT_ID":"2025-120G","EPOCH":"2025-08-10T14:02:19.627296","MEAN_MOTION":15.39604344,"ECCENTRICITY":0.000112,"INCLINATION":53.1601,"RA_OF_ASC_NODE":18.7756,"ARG_OF_PERICENTER":76.3901,"MEAN_ANOMALY":283.7228,"EPHEMERIS_TYPE":0,"CLASSIFICATION_TYPE":"U","NORAD_CAT_ID":64262,"ELEMENT_SET_NO":999,"REV_AT_EPOCH":1157,"BSTAR":0.0013113,"MEAN_MOTION_DOT":0.00052385,"MEAN_MOTION_DDOT":0},{"OBJECT_NAME":"STARLINK-34276","OBJECT_ID":"2025-120H","EPOCH":"2025-08-10T14:49:08.482656","MEAN_MOTION":15.39631766,"ECCENTRICITY":0.0001206,"INCLINATION":53.1607,"RA_OF_ASC_NODE":18.9818,"ARG_OF_PERICENTER":98.0924,"MEAN_ANOMALY":262.0217,"EPHEMERIS_TYPE":0,"CLASSIFICATION_TYPE":"U","NORAD_CAT_ID":64263,"ELEMENT_SET_NO":999,"REV_AT_EPOCH":1157,"BSTAR":0.0011107,"MEAN_MOTION_DOT":0.00044303,"MEAN_MOTION_DDOT":0}]
